TRANSPORTER-12 OBJECT BA
1 62657U 25009BA  26068.70118713  .00011330  00000+0  42733-3 0  9991
2 62657  97.3985 151.1390 0000403 234.6623 125.4579 15.27214003 63739
STARLINK-35870          
1 66572U 25268R   26067.49582661  .00001142  00000+0  50974-4 0  9997
2 66572  43.0010 354.1122 0000143 225.0235 135.0605 15.27602843 17771
